[{"OBJECT_NAME":"STARLINK-2727","OBJECT_ID":"2021-044Q","EPOCH":"2026-03-10T00:00:02.999808","MEAN_MOTION":15.34639006,"ECCENTRICITY":0.00017275,"INCLINATION":53.0508,"RA_OF_ASC_NODE":111.1316,"ARG_OF_PERICENTER":77.2122,"MEAN_ANOMALY":188.8895,"EPHEMERIS_TYPE":0,"CLASSIFICATION_TYPE":"U","NORAD_CAT_ID":48652,"ELEMENT_SET_NO":999,"REV_AT_EPOCH":575,"BSTAR":0.016465627,"MEAN_MOTION_DOT":0.00599833,"MEAN_MOTION_DDOT":0},{"OBJECT_NAME":"STARLINK-30476","OBJECT_ID":"2023-147T","EPOCH":"2026-03-09T21:58:09.534432","MEAN_MOTION":15.36840948,"ECCENTRICITY":0.00192261,"INCLINATION":42.9949,"RA_OF_ASC_NODE":270.5227,"ARG_OF_PERICENTER":243.5984,"MEAN_ANOMALY":116.2898,"EPHEMERIS_TYPE":0,"CLASSIFICATION_TYPE":"U","NORAD_CAT_ID":57930,"ELEMENT_SET_NO":999,"REV_AT_EPOCH":13725,"BSTAR":0.0025736749,"MEAN_MOTION_DOT":0.00096215,"MEAN_MOTION_DDOT":0}]
